{
  "type": "FeatureCollection",
  "features": [
    {
      "type": "Feature",
      "properties": {
        "norad_id": 36707,
        "name": "FENGYUN 1C DEB",
        "group": "fengyun-1c-debris",
        "lat": 76.15102745192313,
        "lon": -10.627213771531878,
        "alt_km": 807.1277022492841,
        "timestamp": "2025-12-07T20:38:14.352054+00:00",
        "meta_object_name": "FENGYUN 1C DEB",
        "meta_object_id": "1999-025EAD",
        "meta_epoch": "2025-12-06T20:32:37.753728",
        "meta_mean_motion": 14.17281084,
        "meta_eccentricity": 0.00499791,
        "meta_inclination": 98.7525,
        "meta_ra_of_asc_node": 27.0595,
        "meta_arg_of_pericenter": 138.3095,
        "meta_mean_anomaly": 222.1906,
        "meta_ephemeris_type": 0,
        "meta_classification_type": "U",
        "meta_norad_cat_id": 36707,
        "meta_element_set_no": 999,
        "meta_rev_at_epoch": 63996,
        "meta_bstar": 0.0013920761,
        "meta_mean_motion_dot": 2.804e-05,
        "meta_mean_motion_ddot": 0,
        "tle_line1": "1 36707U 99025EAD 25340.85599252  .00002804  00000+0  13921-2 0  9998",
        "tle_line2": "2 36707  98.7525  27.0595 0049979 138.3095 222.1906 14.17281084639967"
      },
      "geometry": {
        "type": "Point",
        "coordinates": [
          -10.627213771531878,
          76.15102745192313
        ]
      }
    },
    {
      "type": "Feature",
      "properties": {
        "norad_id": 36710,
        "name": "FENGYUN 1C DEB",
        "group": "fengyun-1c-debris",
        "lat": 41.720399239966554,
        "lon": -133.43845750822166,
        "alt_km": 697.7040287133404,
        "timestamp": "2025-12-07T20:38:14.352064+00:00",
        "meta_object_name": "FENGYUN 1C DEB",
        "meta_object_id": "1999-025EAG",
        "meta_epoch": "2025-12-05T10:01:29.869248",
        "meta_mean_motion": 14.49716065,
        "meta_eccentricity": 0.00677637,
        "meta_inclination": 98.3798,
        "meta_ra_of_asc_node": 36.582,
        "meta_arg_of_pericenter": 203.7095,
        "meta_mean_anomaly": 156.0972,
        "meta_ephemeris_type": 0,
        "meta_classification_type": "U",
        "meta_norad_cat_id": 36710,
        "meta_element_set_no": 999,
        "meta_rev_at_epoch": 64847,
        "meta_bstar": 0.0030503061,
        "meta_mean_motion_dot": 0.00012064,
        "meta_mean_motion_ddot": 0,
        "tle_line1": "1 36710U 99025EAG 25339.41770682  .00012064  00000+0  30503-2 0  9994",
        "tle_line2": "2 36710  98.3798  36.5820 0067763 203.7095 156.0972 14.49716065648474"
      },
      "geometry": {
        "type": "Point",
        "coordinates": [
          -133.43845750822166,
          41.720399239966554
        ]
      }
    },
    {
      "type": "Feature",
      "properties": {
        "norad_id": 36711,
        "name": "FENGYUN 1C DEB",
        "group": "fengyun-1c-debris",
        "lat": 37.81061805028981,
        "lon": -171.6156338381944,
        "alt_km": 735.7491415037584,
        "timestamp": "2025-12-07T20:38:14.352074+00:00",
        "meta_object_name": "FENGYUN 1C DEB",
        "meta_object_id": "1999-025EAH",
        "meta_epoch": "2025-11-29T18:49:32.545344",
        "meta_mean_motion": 14.42080972,
        "meta_eccentricity": 0.01000486,
        "meta_inclination": 100.8061,
        "meta_ra_of_asc_node": 349.6584,
        "meta_arg_of_pericenter": 244.1532,
        "meta_mean_anomaly": 114.9305,
        "meta_ephemeris_type": 0,
        "meta_classification_type": "U",
        "meta_norad_cat_id": 36711,
        "meta_element_set_no": 999,
        "meta_rev_at_epoch": 64124,
        "meta_bstar": 0.0024295961,
        "meta_mean_motion_dot": 8.419e-05,
        "meta_mean_motion_ddot": 0,
        "tle_line1": "1 36711U 99025EAH 25333.78440446  .00008419  00000+0  24296-2 0  9992",
        "tle_line2": "2 36711 100.8061 349.6584 0100048 244.1532 114.9305 14.42080972641246"
      },
      "geometry": {
        "type": "Point",
        "coordinates": [
          -171.6156338381944,
          37.81061805028981
        ]
      }
    },
    {
      "type": "Feature",
      "properties": {
        "norad_id": 36716,
        "name": "FENGYUN 1C DEB",
        "group": "fengyun-1c-debris",
        "lat": 51.28509711358961,
        "lon": -110.74230297824707,
        "alt_km": 1036.0326718046263,
        "timestamp": "2025-12-07T20:38:14.352084+00:00",
        "meta_object_name": "FENGYUN 1C DEB",
        "meta_object_id": "1999-025EAN",
        "meta_epoch": "2025-12-06T01:08:32.167392",
        "meta_mean_motion": 13.88407535,
        "meta_eccentricity": 0.01480321,
        "meta_inclination": 99.2277,
        "meta_ra_of_asc_node": 259.1657,
        "meta_arg_of_pericenter": 246.9764,
        "meta_mean_anomaly": 111.5723,
        "meta_ephemeris_type": 0,
        "meta_classification_type": "U",
        "meta_norad_cat_id": 36716,
        "meta_element_set_no": 999,
        "meta_rev_at_epoch": 62838,
        "meta_bstar": 0.000413357,
        "meta_mean_motion_dot": 4.96e-06,
        "meta_mean_motion_ddot": 0,
        "tle_line1": "1 36716U 99025EAN 25340.04759453  .00000496  00000+0  41336-3 0  9997",
        "tle_line2": "2 36716  99.2277 259.1657 0148032 246.9764 111.5723 13.88407535628383"
      },
      "geometry": {
        "type": "Point",
        "coordinates": [
          -110.74230297824707,
          51.28509711358961
        ]
      }
    },
    {
      "type": "Feature",
      "properties": {
        "norad_id": 36724,
        "name": "FENGYUN 1C DEB",
        "group": "fengyun-1c-debris",
        "lat": -6.129630016672901,
        "lon": 14.238718806842366,
        "alt_km": 870.2291289907062,
        "timestamp": "2025-12-07T20:38:14.352094+00:00",
        "meta_object_name": "FENGYUN 1C DEB",
        "meta_object_id": "1999-025EAW",
        "meta_epoch": "2025-12-06T13:23:30.710112",
        "meta_mean_motion": 14.25199778,
        "meta_eccentricity": 0.01036211,
        "meta_inclination": 99.4685,
        "meta_ra_of_asc_node": 11.8078,
        "meta_arg_of_pericenter": 215.0566,
        "meta_mean_anomaly": 302.1136,
        "meta_ephemeris_type": 0,
        "meta_classification_type": "U",
        "meta_norad_cat_id": 36724,
        "meta_element_set_no": 999,
        "meta_rev_at_epoch": 57384,
        "meta_bstar": 0.0032083162,
        "meta_mean_motion_dot": 7.931e-05,
        "meta_mean_motion_ddot": 0,
        "tle_line1": "1 36724U 99025EAW 25340.55799433  .00007931  00000+0  32083-2 0  9993",
        "tle_line2": "2 36724  99.4685  11.8078 0103621 215.0566 302.1136 14.25199778573844"
      },
      "geometry": {
        "type": "Point",
        "coordinates": [
          14.238718806842366,
          -6.129630016672901
        ]
      }
    },
    {
      "type": "Feature",
      "properties": {
        "norad_id": 36729,
        "name": "FENGYUN 1C DEB",
        "group": "fengyun-1c-debris",
        "lat": -49.094112506376234,
        "lon": -25.994593879291923,
        "alt_km": 839.8373215672873,
        "timestamp": "2025-12-07T20:38:14.352104+00:00",
        "meta_object_name": "FENGYUN 1C DEB",
        "meta_object_id": "1999-025EBB",
        "meta_epoch": "2025-12-05T16:05:18.853440",
        "meta_mean_motion": 14.10305503,
        "meta_eccentricity": 0.0045345,
        "meta_inclination": 98.7068,
        "meta_ra_of_asc_node": 321.6982,
        "meta_arg_of_pericenter": 276.6749,
        "meta_mean_anomaly": 82.9262,
        "meta_ephemeris_type": 0,
        "meta_classification_type": "U",
        "meta_norad_cat_id": 36729,
        "meta_element_set_no": 999,
        "meta_rev_at_epoch": 87152,
        "meta_bstar": 0.00051397144,
        "meta_mean_motion_dot": 8.78e-06,
        "meta_mean_motion_ddot": 0,
        "tle_line1": "1 36729U 99025EBB 25339.67035710  .00000878  00000+0  51397-3 0  9993",
        "tle_line2": "2 36729  98.7068 321.6982 0045345 276.6749  82.9262 14.10305503871524"
      },
      "geometry": {
        "type": "Point",
        "coordinates": [
          -25.994593879291923,
          -49.094112506376234
        ]
      }
    },
    {
      "type": "Feature",
      "properties": {
        "norad_id": 36734,
        "name": "FENGYUN 1C DEB",
        "group": "fengyun-1c-debris",
        "lat": 22.357614288417675,
        "lon": -147.6438248518371,
        "alt_km": 798.8984179529662,
        "timestamp": "2025-12-07T20:38:14.352114+00:00",
        "meta_object_name": "FENGYUN 1C DEB",
        "meta_object_id": "1999-025EBG",
        "meta_epoch": "2025-12-06T01:47:35.625696",
        "meta_mean_motion": 14.25778365,
        "meta_eccentricity": 0.00357798,
        "meta_inclination": 99.0548,
        "meta_ra_of_asc_node": 26.7523,
        "meta_arg_of_pericenter": 237.8747,
        "meta_mean_anomaly": 121.8957,
        "meta_ephemeris_type": 0,
        "meta_classification_type": "U",
        "meta_norad_cat_id": 36734,
        "meta_element_set_no": 999,
        "meta_rev_at_epoch": 82639,
        "meta_bstar": 0.0027996268,
        "meta_mean_motion_dot": 6.655e-05,
        "meta_mean_motion_ddot": 0,
        "tle_line1": "1 36734U 99025EBG 25340.07471789  .00006655  00000+0  27996-2 0  9991",
        "tle_line2": "2 36734  99.0548  26.7523 0035779 237.8747 121.8957 14.25778365826393"
      },
      "geometry": {
        "type": "Point",
        "coordinates": [
          -147.6438248518371,
          22.357614288417675
        ]
      }
    }
  ]
}